NORAD_CAT_ID,OBJECT_NAME,OBJECT_TYPE,EPOCH,MEAN_MOTION,ECCENTRICITY,INCLINATION,RA_OF_ASC_NODE,ARG_OF_PERICENTER,MEAN_ANOMALY,BSTAR,MEAN_MOTION_DOT,MEAN_MOTION_DDOT,TLE_LINE0,TLE_LINE1,TLE_LINE2,SEMIMAJOR_AXIS,PERIOD,APOGEE,PERIGEE,DECAYED
51970.0,STARLINK-3677,PAYLOAD,2022-11-21 13:57:22,15.08832281,0.0002098,53.2206,34.5708,39.354,320.7604,8.7504e-05,1.104e-05,0.0,0 STARLINK-3677,1 51970U 22025Q   22325.58150543  .00001104  00000-0  87504-4 0  9992,2 51970  53.2206  34.5708 0002098  39.3540 320.7604 15.08832281 39420,6917.904,95.438,541.22,538.318,0.0
51970.0,STARLINK-3677,PAYLOAD,2022-11-22 04:15:49,15.08859033,0.0002119,53.2202,31.8957,35.1667,324.9465,-6.4775e-05,-1.32e-05,0.0,0 STARLINK-3677,1 51970U 22025Q   22326.17765154 -.00001320  00000-0 -64775-4 0  9995,2 51970  53.2202  31.8957 0002119  35.1667 324.9465 15.08859033 40607,6917.821999999999,95.436,541.153,538.221,0.0
51970.0,STARLINK-3677,PAYLOAD,2022-11-22 12:12:44,15.08850165,0.0002159,53.2202,30.4092,39.2328,320.8821,0.00023232,3.412e-05,0.0,0 STARLINK-3677,1 51970U 22025Q   22326.50885184  .00003412  00000-0  23232-3 0  9992,2 51970  53.2202  30.4092 0002159  39.2328 320.8821 15.08850165 39566,6917.849,95.437,541.2080000000002,538.221,0.0
51970.0,STARLINK-3677,PAYLOAD,2022-11-23 04:06:36,15.08841467,0.0002208,53.2192,27.436,40.2465,319.8691,0.00017288,2.464e-05,0.0,0 STARLINK-3677,1 51970U 22025Q   22327.17125898  .00002464  00000-0  17288-3 0  9995,2 51970  53.2192  27.4360 0002208  40.2465 319.8691 15.08841467 40758,6917.876,95.437,541.268,538.2130000000002,0.0
51970.0,STARLINK-3677,PAYLOAD,2022-11-23 10:28:09,15.08839185,0.0002203,53.2193,26.2458,40.8004,319.3153,0.00012562,1.712e-05,0.0,0 STARLINK-3677,1 51970U 22025Q   22327.43622077  .00001712  00000-0  12562-3 0  9990,2 51970  53.2193  26.2458 0002203  40.8004 319.3153 15.08839185 39709,6917.8830000000025,95.438,541.2719999999998,538.224,0.0
51970.0,STARLINK-3677,PAYLOAD,2022-11-24 10:18:57,15.08832694,0.0002174,53.2216,21.7863,46.9817,313.1357,-9.3049e-05,-1.769e-05,0.0,0 STARLINK-3677,1 51970U 22025Q   22328.42982959 -.00001769  00000-0 -93049-4 0  9992,2 51970  53.2216  21.7863 0002174  46.9817 313.1357 15.08832694 39853,6917.903,95.438,541.2719999999998,538.264,0.0
51970.0,STARLINK-3677,PAYLOAD,2022-11-24 13:29:42,15.08844892,0.0001912,53.2213,21.1915,41.1141,318.9995,1.1742e-05,-1.01e-06,0.0,0 STARLINK-3677,1 51970U 22025Q   22328.56229895 -.00000101  00000-0  11742-4 0  9998,2 51970  53.2213  21.1915 0001912  41.1141 318.9995 15.08844892 40966,6917.865,95.437,541.053,538.408,0.0
51970.0,STARLINK-3677,PAYLOAD,2022-11-25 03:48:11,15.08826853,0.000211,53.2224,18.5173,39.2109,320.9036,0.00010555,1.391e-05,0.0,0 STARLINK-3677,1 51970U 22025Q   22329.15846505  .00001391  00000-0  10555-3 0  9998,2 51970  53.2224  18.5173 0002110  39.2109 320.9036 15.08826853 41054,6917.920999999999,95.438,541.245,538.326,0.0
51970.0,STARLINK-3677,PAYLOAD,2022-11-25 11:45:06,15.08839275,0.0002117,53.2203,17.0281,40.5576,319.5573,0.00011232,1.5e-05,0.0,0 STARLINK-3677,1 51970U 22025Q   22329.48966015  .00001500  00000-0  11232-3 0  9998,2 51970  53.2203  17.0281 0002117  40.5576 319.5573 15.08839275 41103,6917.8830000000025,95.438,541.212,538.283,0.0
51970.0,STARLINK-3677,PAYLOAD,2022-11-26 11:35:53,15.08846151,0.000227,53.2192,12.5685,37.8874,322.2278,0.00017237,2.457e-05,0.0,0 STARLINK-3677,1 51970U 22025Q   22330.48325383  .00002457  00000-0  17237-3 0  9990,2 51970  53.2192  12.5685 0002270  37.8874 322.2278 15.08846151 40167,6917.861999999999,95.437,541.297,538.156,0.0
51970.0,STARLINK-3677,PAYLOAD,2022-11-26 19:32:48,15.08854533,0.0002289,53.2193,11.0817,36.1943,323.9204,9.4404e-05,1.215e-05,0.0,0 STARLINK-3677,1 51970U 22025Q   22330.81444670  .00001215  00000-0  94404-4 0  9991,2 51970  53.2193  11.0817 0002289  36.1943 323.9204 15.08854533 41305,6917.8359999999975,95.437,541.284,538.117,0.0
51970.0,STARLINK-3677,PAYLOAD,2022-11-27 03:29:44,15.08836498,0.0002234,53.219,9.5945,30.9138,329.1986,4.8175e-06,-2.12e-06,0.0,0 STARLINK-3677,1 51970U 22025Q   22331.14565537 -.00000212  00000-0  48175-5 0  9996,2 51970  53.2190   9.5945 0002234  30.9138 329.1986 15.08836498 41354,6917.891,95.438,541.302,538.211,0.0
51970.0,STARLINK-3677,PAYLOAD,2022-11-27 11:26:41,15.08828928,0.0002227,53.22,8.1083,34.9299,325.1839,-5.397799999999999e-06,-3.74e-06,0.0,0 STARLINK-3677,1 51970U 22025Q   22331.47686431 -.00000374  00000-0 -53978-5 0  9996,2 51970  53.2200   8.1083 0002227  34.9299 325.1839 15.08828928 41406,6917.9140000000025,95.438,541.32,538.239,0.0
51970.0,STARLINK-3677,PAYLOAD,2022-11-27 19:23:36,15.08836678,0.0002192,53.2197,6.6218,34.1149,325.9984,-8.929099999999999e-06,-4.3e-06,0.0,0 STARLINK-3677,1 51970U 22025Q   22331.80806056 -.00000430  00000-0 -89291-5 0  9990,2 51970  53.2197   6.6218 0002192  34.1149 325.9984 15.08836678 41456,6917.891,95.438,541.2719999999998,538.239,0.0
51970.0,STARLINK-3677,PAYLOAD,2022-11-28 11:17:27,15.08835328,0.0002111,53.22,3.6475,39.1194,320.995,-4.273600000000001e-05,-9.68e-06,0.0,0 STARLINK-3677,1 51970U 22025Q   22332.47046251 -.00000968  00000-0 -42736-4 0  9995,2 51970  53.2200   3.6475 0002111  39.1194 320.9950 15.08835328 40468,6917.895,95.438,541.22,538.299,0.0
51970.0,STARLINK-3677,PAYLOAD,2022-11-29 01:35:55,15.08835668,0.0002289,53.2196,0.9706,29.9589,330.1534,8.772200000000001e-05,1.108e-05,0.0,0 STARLINK-3677,1 51970U 22025Q   22333.06661841  .00001108  00000-0  87722-4 0  9998,2 51970  53.2196   0.9706 0002289  29.9589 330.1534 15.08835668 41649,6917.894,95.438,541.342,538.175,0.0
51970.0,STARLINK-3677,PAYLOAD,2022-11-29 19:05:10,15.08838017,0.0002408,53.2196,357.7009,32.4807,327.6333,0.00011851,1.598e-05,0.0,0 STARLINK-3677,1 51970U 22025Q   22333.79525876  .00001598  00000-0  11851-3 0  9997,2 51970  53.2196 357.7009 0002408  32.4807 327.6333 15.08838017 40663,6917.886,95.438,541.4169999999998,538.086,0.0
51970.0,STARLINK-3677,PAYLOAD,2022-11-30 07:48:16,15.08835688,0.0002563999999999,53.2196,355.3232,36.1412,323.9753,-2.737e-05,-7.24e-06,0.0,0 STARLINK-3677,1 51970U 22025Q   22334.32518597 -.00000724  00000-0 -27370-4 0  9995,2 51970  53.2196 355.3232 0002564  36.1412 323.9753 15.08835688 41837,6917.894,95.438,541.5319999999998,537.985,0.0
51970.0,STARLINK-3677,PAYLOAD,2022-12-01 01:17:29,15.08847434,0.0002261,53.2214,352.0502,52.8616,307.2583,1.2086e-05,-9.6e-07,0.0,0 STARLINK-3677,1 51970U 22025Q   22335.05381843 -.00000096  00000-0  12086-4 0  9997,2 51970  53.2214 352.0502 0002261  52.8616 307.2583 15.08847434 41947,6917.858,95.437,541.2869999999998,538.159,0.0
51970.0,STARLINK-3677,PAYLOAD,2022-12-01 18:46:43,15.08867704,0.0002122,53.2212,348.7801,40.3509,319.7641,-0.00024166,-4.135e-05,0.0,0 STARLINK-3677,1 51970U 22025Q   22335.78244683 -.00004135  00000-0 -24166-3 0  9997,2 51970  53.2212 348.7801 0002122  40.3509 319.7641 15.08867704 42056,6917.795999999999,95.436,541.129,538.193,0.0
51970.0,STARLINK-3677,PAYLOAD,2022-12-02 01:08:17,15.08837754,0.0002286,53.2213,347.5911,35.7166,324.3979,0.00014778,2.064e-05,0.0,0 STARLINK-3677,1 51970U 22025Q   22336.04742087  .00002064  00000-0  14778-3 0  9993,2 51970  53.2213 347.5911 0002286  35.7166 324.3979 15.08837754 42096,6917.887,95.438,541.3340000000002,538.1709999999998,0.0
51970.0,STARLINK-3677,PAYLOAD,2022-12-03 05:45:14,15.08835293,0.0002351,53.2198,342.2372,33.2105,326.9034,4.248600000000001e-05,3.88e-06,0.0,0 STARLINK-3677,1 51970U 22025Q   22337.23974953  .00000388  00000-0  42486-4 0  9999,2 51970  53.2198 342.2372 0002351  33.2105 326.9034 15.08835293 42276,6917.895,95.438,541.386,538.133,0.0
51970.0,STARLINK-3677,PAYLOAD,2022-12-03 07:20:37,15.08836378,0.0002312,53.2203,341.9401,35.5578,324.5568,4.935600000000001e-05,4.97e-06,0.0,0 STARLINK-3677,1 51970U 22025Q   22337.30598870  .00000497  00000-0  49356-4 0  9991,2 51970  53.2203 341.9401 0002312  35.5578 324.5568 15.08836378 41199,6917.891,95.438,541.356,538.1569999999998,0.0
51970.0,STARLINK-3677,PAYLOAD,2022-12-03 16:52:55,15.08842447,0.0002404,53.2211,340.1578,36.0912,324.0242,5.741800000000001e-05,6.26e-06,0.0,0 STARLINK-3677,1 51970U 22025Q   22337.70342523  .00000626  00000-0  57418-4 0  9999,2 51970  53.2211 340.1578 0002404  36.0912 324.0242 15.08842447 42340,6917.873000000001,95.437,541.401,538.075,0.0
51970.0,STARLINK-3677,PAYLOAD,2022-12-04 07:11:24,15.08843251,0.0002461,53.2193,337.4802,28.5429,331.5698,-5.4868e-05,-1.162e-05,0.0,0 STARLINK-3677,1 51970U 22025Q   22338.29958785 -.00001162  00000-0 -54868-4 0  9991,2 51970  53.2193 337.4802 0002461  28.5429 331.5698 15.08843251 41341,6917.87,95.437,541.438,538.033,0.0
51970.0,STARLINK-3677,PAYLOAD,2022-12-05 00:40:39,15.08838296,0.0002498,53.2193,334.2092,30.4972,329.6165,5.285100000000001e-05,5.53e-06,0.0,0 STARLINK-3677,1 51970U 22025Q   22339.02823197  .00000553  00000-0  52851-4 0  9992,2 51970  53.2193 334.2092 0002498  30.4972 329.6165 15.08838296 42545,6917.886,95.438,541.479,538.023,0.0
51970.0,STARLINK-3677,PAYLOAD,2022-12-05 08:37:34,15.0884262,0.0002517,53.2193,332.7227,31.1989,328.9152,8.35e-05,1.041e-05,0.0,0 STARLINK-3677,1 51970U 22025Q   22339.35942853  .00001041  00000-0  83500-4 0  9997,2 51970  53.2193 332.7227 0002517  31.1989 328.9152 15.08842620 41505,6917.871999999999,95.437,541.479,537.996,0.0
51970.0,STARLINK-3677,PAYLOAD,2022-12-06 08:28:21,15.08844364,0.0002603,53.2194,328.2631,33.5649,326.5508,0.00013356,1.838e-05,0.0,0 STARLINK-3677,1 51970U 22025Q   22340.35302609  .00001838  00000-0  13356-3 0  9993,2 51970  53.2194 328.2631 0002603  33.5649 326.5508 15.08844364 42743,6917.8669999999975,95.437,541.533,537.931,0.0
51970.0,STARLINK-3677,PAYLOAD,2022-12-06 16:25:18,15.08833484,0.0002684,53.2199,326.777,35.8226,324.2946,3.8937e-05,3.31e-06,0.0,0 STARLINK-3677,1 51970U 22025Q   22340.68423677  .00000331  00000-0  38937-4 0  9998,2 51970  53.2199 326.7770 0002684  35.8226 324.2946 15.08833484 41707,6917.9,95.438,541.622,537.909,0.0
